STARLINK-1651           
1 46366U 20062AT  26061.89895882  .11338563  12405-4  52076-3 0  9996
2 46366  53.0202 299.8381 0006416 248.9983 111.0378 16.42914037304789
STARLINK-1687           
1 46541U 20070K   26062.18227850  .02095774  49395-2  15464-2 0  9996
2 46541  53.0297 124.1161 0010603   4.4351 355.6777 16.15989446299666
STARLINK-1712           
1 46581U 20070BB  26062.00002315  .00514370  11782-3  13315-2 0  9997
2 46581  53.0305 114.7936 0006776 334.2648 159.0062 15.94522765  5788
STARLINK-1848           
1 46740U 20074B   26061.88088104  .03521303  11928-4  12094-2 0  9996
2 46740  53.0253 285.7918 0006625 246.3230 113.7115 16.24659105296577
WILDTRACKCUBE-SIMBA     
1 47941U 21022K   26061.77831130  .01594751  20789-2  13686-2 0  9993
2 47941  97.3814 343.4750 0007101 121.4058 238.7923 16.13912444274737
JILIN-1 GAOFEN 3D02     
1 49005U 21061C   26061.97532866  .01190771  90559-3  12649-2 0  9990
2 49005  97.2930 142.4073 0004633 241.2360 118.8459 16.10438682259736
STARLINK-3269           
1 50194U 21125AQ  26061.77562723  .01810870  27892-2  16396-2 0  9996
2 50194  53.2004 165.9931 0011033 335.8269  24.2248 16.12512162237217
LYNK TOWER 1            
1 52162U 22033F   26061.78838928  .00607355  18917-3  74408-3 0  9995
2 52162  97.2574 166.8623 0005923 198.1753 161.9319 16.08007938220137
STARLINK-3767           
1 52376U 22045AX  26062.00002315  .01205388  71667-3  28418-2 0  9995
2 52376  53.2121 206.5262 0001234  63.2526 281.5049 15.96387473  5867
NUSAT-28 (ALICE LEE)    
1 52747U 22057R   26061.94843477  .00460984  87650-4  11928-2 0  9996
2 52747  97.4983 211.0928 0006723 289.4468  70.6081 15.95067741210975
STARLINK-6284           
1 56403U 23061AF  26061.99976766  .02226794  90178-5  70969-3 0  9990
2 56403  42.9910 178.6742 0005921 305.7876  54.2460 16.25300943156380
STARLINK-6201           
1 56486U 23064AQ  26061.91668981  .00978999  42177-3  28687-2 0  9995
2 56486  69.9978 133.0386 0003996 275.0605 132.1626 15.92624054  5841
SHIYAN-25 (SY-25)       
1 57047U 23087A   26061.96656007 -.00134219  87567-5 -24799-3 0  9991
2 57047  96.7145 123.0433 0012420 242.5604 117.4414 16.00915285157816
STARLINK-6151           
1 57118U 23090T   26061.81664829  .01209511  96672-3  10093-2 0  9992
2 57118  42.9701 191.2539 0017416 339.7744  20.2447 16.12750797150777
STARLINK-30210          
1 57292U 23096C   26061.78101889  .00725769  24986-3  12361-2 0  9995
2 57292  42.9636 178.9661 0026101 353.8912   6.1644 16.01049626147408
STARLINK-30232          
1 57303U 23096P   26061.74327695  .00789902  30028-3  13239-2 0  9997
2 57303  42.9714 178.7918 0025635 354.9933   5.0686 16.01352833147385
