[{"OBJECT_NAME":"STARLINK-1651","OBJECT_ID":"2020-062AT","EPOCH":"2026-03-02T21:34:30.042048","MEAN_MOTION":16.42914037,"ECCENTRICITY":0.00064168,"INCLINATION":53.0202,"RA_OF_ASC_NODE":299.8381,"ARG_OF_PERICENTER":248.9983,"MEAN_ANOMALY":111.0378,"EPHEMERIS_TYPE":0,"CLASSIFICATION_TYPE":"U","NORAD_CAT_ID":46366,"ELEMENT_SET_NO":999,"REV_AT_EPOCH":30478,"BSTAR":0.00052075545,"MEAN_MOTION_DOT":0.11338563,"MEAN_MOTION_DDOT":1.2404903e-5},{"OBJECT_NAME":"STARLINK-1687","OBJECT_ID":"2020-070K","EPOCH":"2026-03-03T04:22:28.862400","MEAN_MOTION":16.15989446,"ECCENTRICITY":0.0010603,"INCLINATION":53.0297,"RA_OF_ASC_NODE":124.1161,"ARG_OF_PERICENTER":4.4351,"MEAN_ANOMALY":355.6777,"EPHEMERIS_TYPE":0,"CLASSIFICATION_TYPE":"U","NORAD_CAT_ID":46541,"ELEMENT_SET_NO":999,"REV_AT_EPOCH":29966,"BSTAR":0.0015464,"MEAN_MOTION_DOT":0.02095774,"MEAN_MOTION_DDOT":0.0049395},{"OBJECT_NAME":"STARLINK-1712","OBJECT_ID":"2020-070BB","EPOCH":"2026-03-03T00:00:02.000160","MEAN_MOTION":15.94522765,"ECCENTRICITY":0.00067762,"INCLINATION":53.0305,"RA_OF_ASC_NODE":114.7936,"ARG_OF_PERICENTER":334.2648,"MEAN_ANOMALY":159.0062,"EPHEMERIS_TYPE":0,"CLASSIFICATION_TYPE":"U","NORAD_CAT_ID":46581,"ELEMENT_SET_NO":999,"REV_AT_EPOCH":578,"BSTAR":0.0013315266,"MEAN_MOTION_DOT":0.0051437,"MEAN_MOTION_DDOT":0.00011781717},{"OBJECT_NAME":"STARLINK-1848","OBJECT_ID":"2020-074B","EPOCH":"2026-03-02T21:08:28.121856","MEAN_MOTION":16.24659105,"ECCENTRICITY":0.00066254,"INCLINATION":53.0253,"RA_OF_ASC_NODE":285.7918,"ARG_OF_PERICENTER":246.323,"MEAN_ANOMALY":113.7115,"EPHEMERIS_TYPE":0,"CLASSIFICATION_TYPE":"U","NORAD_CAT_ID":46740,"ELEMENT_SET_NO":999,"REV_AT_EPOCH":29657,"BSTAR":0.0012094007,"MEAN_MOTION_DOT":0.03521303,"MEAN_MOTION_DDOT":1.1928451e-5},{"OBJECT_NAME":"WILDTRACKCUBE-SIMBA","OBJECT_ID":"2021-022K","EPOCH":"2026-03-02T18:40:46.096320","MEAN_MOTION":16.13912444,"ECCENTRICITY":0.00071014,"INCLINATION":97.3814,"RA_OF_ASC_NODE":343.475,"ARG_OF_PERICENTER":121.4058,"MEAN_ANOMALY":238.7923,"EPHEMERIS_TYPE":0,"CLASSIFICATION_TYPE":"U","NORAD_CAT_ID":47941,"ELEMENT_SET_NO":999,"REV_AT_EPOCH":27473,"BSTAR":0.0013685892,"MEAN_MOTION_DOT":0.01594751,"MEAN_MOTION_DDOT":0.0020788521},{"OBJECT_NAME":"JILIN-1 GAOFEN 3D02","OBJECT_ID":"2021-061C","EPOCH":"2026-03-02T23:24:28.396224","MEAN_MOTION":16.10438682,"ECCENTRICITY":0.00046331,"INCLINATION":97.293,"RA_OF_ASC_NODE":142.4073,"ARG_OF_PERICENTER":241.236,"MEAN_ANOMALY":118.8459,"EPHEMERIS_TYPE":0,"CLASSIFICATION_TYPE":"U","NORAD_CAT_ID":49005,"ELEMENT_SET_NO":999,"REV_AT_EPOCH":25973,"BSTAR":0.0012648907,"MEAN_MOTION_DOT":0.01190771,"MEAN_MOTION_DDOT":0.00090559131},{"OBJECT_NAME":"STARLINK-3269","OBJECT_ID":"2021-125AQ","EPOCH":"2026-03-02T18:36:54.192672","MEAN_MOTION":16.12512162,"ECCENTRICITY":0.00110334,"INCLINATION":53.2004,"RA_OF_ASC_NODE":165.9931,"ARG_OF_PERICENTER":335.8269,"MEAN_ANOMALY":24.2248,"EPHEMERIS_TYPE":0,"CLASSIFICATION_TYPE":"U","NORAD_CAT_ID":50194,"ELEMENT_SET_NO":999,"REV_AT_EPOCH":23721,"BSTAR":0.0016396434,"MEAN_MOTION_DOT":0.0181087,"MEAN_MOTION_DDOT":0.002789229},{"OBJECT_NAME":"LYNK TOWER 1","OBJECT_ID":"2022-033F","EPOCH":"2026-03-02T18:55:16.833792","MEAN_MOTION":16.08007938,"ECCENTRICITY":0.00059238,"INCLINATION":97.2574,"RA_OF_ASC_NODE":166.8623,"ARG_OF_PERICENTER":198.1753,"MEAN_ANOMALY":161.9319,"EPHEMERIS_TYPE":0,"CLASSIFICATION_TYPE":"U","NORAD_CAT_ID":52162,"ELEMENT_SET_NO":999,"REV_AT_EPOCH":22013,"BSTAR":0.0007440774,"MEAN_MOTION_DOT":0.00607355,"MEAN_MOTION_DDOT":0.00018916924},{"OBJECT_NAME":"STARLINK-3767","OBJECT_ID":"2022-045AX","EPOCH":"2026-03-03T00:00:02.000160","MEAN_MOTION":15.96387473,"ECCENTRICITY":0.00012342,"INCLINATION":53.2121,"RA_OF_ASC_NODE":206.5262,"ARG_OF_PERICENTER":63.2526,"MEAN_ANOMALY":281.5049,"EPHEMERIS_TYPE":0,"CLASSIFICATION_TYPE":"U","NORAD_CAT_ID":52376,"ELEMENT_SET_NO":999,"REV_AT_EPOCH":586,"BSTAR":0.0028418264,"MEAN_MOTION_DOT":0.01205388,"MEAN_MOTION_DDOT":0.00071667148},{"OBJECT_NAME":"NUSAT-28 (ALICE LEE)","OBJECT_ID":"2022-057R","EPOCH":"2026-03-02T22:45:44.764128","MEAN_MOTION":15.95067741,"ECCENTRICITY":0.00067232,"INCLINATION":97.4983,"RA_OF_ASC_NODE":211.0928,"ARG_OF_PERICENTER":289.4468,"MEAN_ANOMALY":70.6081,"EPHEMERIS_TYPE":0,"CLASSIFICATION_TYPE":"U","NORAD_CAT_ID":52747,"ELEMENT_SET_NO":999,"REV_AT_EPOCH":21097,"BSTAR":0.0011927703,"MEAN_MOTION_DOT":0.00460984,"MEAN_MOTION_DDOT":8.7649857e-5},{"OBJECT_NAME":"STARLINK-6284","OBJECT_ID":"2023-061AF","EPOCH":"2026-03-02T23:59:39.925824","MEAN_MOTION":16.25300943,"ECCENTRICITY":0.0005921,"INCLINATION":42.991,"RA_OF_ASC_NODE":178.6742,"ARG_OF_PERICENTER":305.7876,"MEAN_ANOMALY":54.246,"EPHEMERIS_TYPE":0,"CLASSIFICATION_TYPE":"U","NORAD_CAT_ID":56403,"ELEMENT_SET_NO":999,"REV_AT_EPOCH":15638,"BSTAR":0.00070969,"MEAN_MOTION_DOT":0.02226794,"MEAN_MOTION_DDOT":9.0178e-6},{"OBJECT_NAME":"STARLINK-6201","OBJECT_ID":"2023-064AQ","EPOCH":"2026-03-02T22:00:01.999584","MEAN_MOTION":15.92624054,"ECCENTRICITY":0.00039961,"INCLINATION":69.9978,"RA_OF_ASC_NODE":133.0386,"ARG_OF_PERICENTER":275.0605,"MEAN_ANOMALY":132.1626,"EPHEMERIS_TYPE":0,"CLASSIFICATION_TYPE":"U","NORAD_CAT_ID":56486,"ELEMENT_SET_NO":999,"REV_AT_EPOCH":584,"BSTAR":0.0028687221,"MEAN_MOTION_DOT":0.00978999,"MEAN_MOTION_DDOT":0.00042176905},{"OBJECT_NAME":"SHIYAN-25 (SY-25)","OBJECT_ID":"2023-087A","EPOCH":"2026-03-02T23:11:50.790048","MEAN_MOTION":16.00915285,"ECCENTRICITY":0.00124205,"INCLINATION":96.7145,"RA_OF_ASC_NODE":123.0433,"ARG_OF_PERICENTER":242.5604,"MEAN_ANOMALY":117.4414,"EPHEMERIS_TYPE":0,"CLASSIFICATION_TYPE":"U","NORAD_CAT_ID":57047,"ELEMENT_SET_NO":999,"REV_AT_EPOCH":15781,"BSTAR":-0.00024799335,"MEAN_MOTION_DOT":-0.00134219,"MEAN_MOTION_DDOT":8.756745e-6},{"OBJECT_NAME":"STARLINK-6151","OBJECT_ID":"2023-090T","EPOCH":"2026-03-02T19:35:58.412256","MEAN_MOTION":16.12750797,"ECCENTRICITY":0.0017416,"INCLINATION":42.9701,"RA_OF_ASC_NODE":191.2539,"ARG_OF_PERICENTER":339.7744,"MEAN_ANOMALY":20.2447,"EPHEMERIS_TYPE":0,"CLASSIFICATION_TYPE":"U","NORAD_CAT_ID":57118,"ELEMENT_SET_NO":999,"REV_AT_EPOCH":15077,"BSTAR":0.0010093,"MEAN_MOTION_DOT":0.01209511,"MEAN_MOTION_DDOT":0.00096672},{"OBJECT_NAME":"STARLINK-30210","OBJECT_ID":"2023-096C","EPOCH":"2026-03-02T18:44:40.032096","MEAN_MOTION":16.01049626,"ECCENTRICITY":0.0026101,"INCLINATION":42.9636,"RA_OF_ASC_NODE":178.9661,"ARG_OF_PERICENTER":353.8912,"MEAN_ANOMALY":6.1644,"EPHEMERIS_TYPE":0,"CLASSIFICATION_TYPE":"U","NORAD_CAT_ID":57292,"ELEMENT_SET_NO":999,"REV_AT_EPOCH":14740,"BSTAR":0.0012361,"MEAN_MOTION_DOT":0.00725769,"MEAN_MOTION_DDOT":0.00024986},{"OBJECT_NAME":"STARLINK-30232","OBJECT_ID":"2023-096P","EPOCH":"2026-03-02T17:50:19.128480","MEAN_MOTION":16.01352833,"ECCENTRICITY":0.00256359,"INCLINATION":42.9714,"RA_OF_ASC_NODE":178.7918,"ARG_OF_PERICENTER":354.9933,"MEAN_ANOMALY":5.0686,"EPHEMERIS_TYPE":0,"CLASSIFICATION_TYPE":"U","NORAD_CAT_ID":57303,"ELEMENT_SET_NO":999,"REV_AT_EPOCH":14738,"BSTAR":0.001323895,"MEAN_MOTION_DOT":0.00789902,"MEAN_MOTION_DDOT":0.00030027816}]
